[{"OBJECT_NAME":"STARLINK-34544","OBJECT_ID":"2025-152Z","EPOCH":"2026-03-09T13:49:52.320000","MEAN_MOTION":15.05666765,"ECCENTRICITY":0.000241,"INCLINATION":97.6018,"RA_OF_ASC_NODE":285.4458,"ARG_OF_PERICENTER":90.4646,"MEAN_ANOMALY":269.6857,"EPHEMERIS_TYPE":0,"CLASSIFICATION_TYPE":"U","NORAD_CAT_ID":64865,"ELEMENT_SET_NO":999,"REV_AT_EPOCH":3540,"BSTAR":0.00022307,"MEAN_MOTION_DOT":3.161e-5,"MEAN_MOTION_DDOT":0},{"OBJECT_NAME":"UNKNOWN","OBJECT_ID":"","EPOCH":"2026-03-09T02:53:57.432768","MEAN_MOTION":15.04852502,"ECCENTRICITY":0.0007482,"INCLINATION":86.6587,"RA_OF_ASC_NODE":118.2618,"ARG_OF_PERICENTER":183.1315,"MEAN_ANOMALY":176.9875,"EPHEMERIS_TYPE":0,"CLASSIFICATION_TYPE":"U","NORAD_CAT_ID":82402,"ELEMENT_SET_NO":999,"REV_AT_EPOCH":46745,"BSTAR":0.00051144,"MEAN_MOTION_DOT":7.26e-5,"MEAN_MOTION_DDOT":0}]
